CCSDS_OMM_VERS = 2.0
CREATION_DATE  = 
ORIGINATOR     = 

OBJECT_NAME    = SL-3 R/B
OBJECT_ID      = 1982-079B
CENTER_NAME    = EARTH
REF_FRAME      = TEME
TIME_SYSTEM    = UTC
MEAN_ELEMENT_THEORY = SGP/SGP4

EPOCH          = 2026-01-23T21:39:02.018880
MEAN_MOTION    = 15.24156824
ECCENTRICITY   = .00246604
INCLINATION    = 81.1442
RA_OF_ASC_NODE = 245.9429
ARG_OF_PERICENTER = 320.0544
MEAN_ANOMALY   = 39.8873

EPHEMERIS_TYPE = 0
CLASSIFICATION_TYPE = U
NORAD_CAT_ID   = 13403
ELEMENT_SET_NO = 999
REV_AT_EPOCH   = 37087
BSTAR          = .33175556E-3
MEAN_MOTION_DOT = .8167E-4
MEAN_MOTION_DDOT = 0

CCSDS_OMM_VERS = 2.0
CREATION_DATE  = 
ORIGINATOR     = 

OBJECT_NAME    = SL-14 R/B
OBJECT_ID      = 1982-092B
CENTER_NAME    = EARTH
REF_FRAME      = TEME
TIME_SYSTEM    = UTC
MEAN_ELEMENT_THEORY = SGP/SGP4

EPOCH          = 2026-01-23T13:16:12.467712
MEAN_MOTION    = 14.86607857
ECCENTRICITY   = .00218872
INCLINATION    = 82.5680
RA_OF_ASC_NODE = 183.6048
ARG_OF_PERICENTER = 90.9963
MEAN_ANOMALY   = 359.0983

EPHEMERIS_TYPE = 0
CLASSIFICATION_TYPE = U
NORAD_CAT_ID   = 13553
ELEMENT_SET_NO = 999
REV_AT_EPOCH   = 32222
BSTAR          = .1097115E-3
MEAN_MOTION_DOT = .1002E-4
MEAN_MOTION_DDOT = 0

CCSDS_OMM_VERS = 2.0
CREATION_DATE  = 
ORIGINATOR     = 

OBJECT_NAME    = SL-3 R/B
OBJECT_ID      = 1983-010B
CENTER_NAME    = EARTH
REF_FRAME      = TEME
TIME_SYSTEM    = UTC
MEAN_ELEMENT_THEORY = SGP/SGP4

EPOCH          = 2026-01-23T12:07:50.857536
MEAN_MOTION    = 15.44760624
ECCENTRICITY   = .00166793
INCLINATION    = 81.1015
RA_OF_ASC_NODE = 57.5845
ARG_OF_PERICENTER = 199.4502
MEAN_ANOMALY   = 160.6108

EPHEMERIS_TYPE = 0
CLASSIFICATION_TYPE = U
NORAD_CAT_ID   = 13819
ELEMENT_SET_NO = 999
REV_AT_EPOCH   = 35096
BSTAR          = .37942336E-3
MEAN_MOTION_DOT = .17879E-3
MEAN_MOTION_DDOT = 0

CCSDS_OMM_VERS = 2.0
CREATION_DATE  = 
ORIGINATOR     = 

OBJECT_NAME    = SL-3 R/B
OBJECT_ID      = 1983-075B
CENTER_NAME    = EARTH
REF_FRAME      = TEME
TIME_SYSTEM    = UTC
MEAN_ELEMENT_THEORY = SGP/SGP4

EPOCH          = 2026-01-23T22:04:14.135520
MEAN_MOTION    = 15.37183945
ECCENTRICITY   = .00234475
INCLINATION    = 97.6126
RA_OF_ASC_NODE = 26.8539
ARG_OF_PERICENTER = 34.4042
MEAN_ANOMALY   = 325.8715

EPHEMERIS_TYPE = 0
CLASSIFICATION_TYPE = U
NORAD_CAT_ID   = 14208
ELEMENT_SET_NO = 999
REV_AT_EPOCH   = 32327
BSTAR          = .47527715E-3
MEAN_MOTION_DOT = .17395E-3
MEAN_MOTION_DDOT = 0

CCSDS_OMM_VERS = 2.0
CREATION_DATE  = 
ORIGINATOR     = 

OBJECT_NAME    = COSMOS 1536
OBJECT_ID      = 1984-013A
CENTER_NAME    = EARTH
REF_FRAME      = TEME
TIME_SYSTEM    = UTC
MEAN_ELEMENT_THEORY = SGP/SGP4

EPOCH          = 2026-01-23T19:04:38.441568
MEAN_MOTION    = 15.23160726
ECCENTRICITY   = .0015678
INCLINATION    = 82.5471
RA_OF_ASC_NODE = 152.4405
ARG_OF_PERICENTER = 81.7418
MEAN_ANOMALY   = 278.5596

EPHEMERIS_TYPE = 0
CLASSIFICATION_TYPE = U
NORAD_CAT_ID   = 14699
ELEMENT_SET_NO = 999
REV_AT_EPOCH   = 26578
BSTAR          = .39327703E-3
MEAN_MOTION_DOT = .9355E-4
MEAN_MOTION_DDOT = 0

CCSDS_OMM_VERS = 2.0
CREATION_DATE  = 
ORIGINATOR     = 

OBJECT_NAME    = SL-14 R/B
OBJECT_ID      = 1984-027B
CENTER_NAME    = EARTH
REF_FRAME      = TEME
TIME_SYSTEM    = UTC
MEAN_ELEMENT_THEORY = SGP/SGP4

EPOCH          = 2026-01-23T23:31:46.148736
MEAN_MOTION    = 14.85928795
ECCENTRICITY   = .0019327
INCLINATION    = 82.5425
RA_OF_ASC_NODE = 286.9492
ARG_OF_PERICENTER = 118.9389
MEAN_ANOMALY   = 241.3768

EPHEMERIS_TYPE = 0
CLASSIFICATION_TYPE = U
NORAD_CAT_ID   = 14820
ELEMENT_SET_NO = 999
REV_AT_EPOCH   = 24099
BSTAR          = .10811262E-3
MEAN_MOTION_DOT = .97E-5
MEAN_MOTION_DDOT = 0

CCSDS_OMM_VERS = 2.0
CREATION_DATE  = 
ORIGINATOR     = 

OBJECT_NAME    = SL-8 R/B
OBJECT_ID      = 1985-006B
CENTER_NAME    = EARTH
REF_FRAME      = TEME
TIME_SYSTEM    = UTC
MEAN_ELEMENT_THEORY = SGP/SGP4

EPOCH          = 2026-01-23T08:55:49.916928
MEAN_MOTION    = 14.37754789
ECCENTRICITY   = .00197774
INCLINATION    = 74.0471
RA_OF_ASC_NODE = 344.5321
ARG_OF_PERICENTER = 270.2213
MEAN_ANOMALY   = 206.9153

EPHEMERIS_TYPE = 0
CLASSIFICATION_TYPE = U
NORAD_CAT_ID   = 15483
ELEMENT_SET_NO = 999
REV_AT_EPOCH   = 14751
BSTAR          = .20995637E-3
MEAN_MOTION_DOT = .607E-5
MEAN_MOTION_DDOT = 0

CCSDS_OMM_VERS = 2.0
CREATION_DATE  = 
ORIGINATOR     = 

OBJECT_NAME    = SL-12 R/B(2)
OBJECT_ID      = 1985-042D
CENTER_NAME    = EARTH
REF_FRAME      = TEME
TIME_SYSTEM    = UTC
MEAN_ELEMENT_THEORY = SGP/SGP4

EPOCH          = 2026-01-23T12:47:02.943744
MEAN_MOTION    = 14.21966548
ECCENTRICITY   = .00359358
INCLINATION    = 71.1068
RA_OF_ASC_NODE = 183.1280
ARG_OF_PERICENTER = 199.3709
MEAN_ANOMALY   = 225.2366

EPHEMERIS_TYPE = 0
CLASSIFICATION_TYPE = U
NORAD_CAT_ID   = 15772
ELEMENT_SET_NO = 999
REV_AT_EPOCH   = 10797
BSTAR          = .11976263E-3
MEAN_MOTION_DOT = .219E-5
MEAN_MOTION_DDOT = 0

CCSDS_OMM_VERS = 2.0
CREATION_DATE  = 
ORIGINATOR     = 

OBJECT_NAME    = SL-14 R/B
OBJECT_ID      = 1985-069B
CENTER_NAME    = EARTH
REF_FRAME      = TEME
TIME_SYSTEM    = UTC
MEAN_ELEMENT_THEORY = SGP/SGP4

EPOCH          = 2026-01-23T20:15:29.687904
MEAN_MOTION    = 14.86377315
ECCENTRICITY   = .00183485
INCLINATION    = 82.5246
RA_OF_ASC_NODE = 67.1146
ARG_OF_PERICENTER = 345.7581
MEAN_ANOMALY   = 14.3116

EPHEMERIS_TYPE = 0
CLASSIFICATION_TYPE = U
NORAD_CAT_ID   = 15945
ELEMENT_SET_NO = 999
REV_AT_EPOCH   = 16617
BSTAR          = .8949675E-4
MEAN_MOTION_DOT = .815E-5
MEAN_MOTION_DDOT = 0

CCSDS_OMM_VERS = 2.0
CREATION_DATE  = 
ORIGINATOR     = 

OBJECT_NAME    = SL-16 R/B
OBJECT_ID      = 1985-097B
CENTER_NAME    = EARTH
REF_FRAME      = TEME
TIME_SYSTEM    = UTC
MEAN_ELEMENT_THEORY = SGP/SGP4

EPOCH          = 2026-01-23T00:38:10.470912
MEAN_MOTION    = 14.16590864
ECCENTRICITY   = .0008974
INCLINATION    = 71.0003
RA_OF_ASC_NODE = 236.6846
ARG_OF_PERICENTER = 313.5762
MEAN_ANOMALY   = 152.8358

EPHEMERIS_TYPE = 0
CLASSIFICATION_TYPE = U
NORAD_CAT_ID   = 16182
ELEMENT_SET_NO = 999
REV_AT_EPOCH   = 8076
BSTAR          = -.38269316E-4
MEAN_MOTION_DOT = -.124E-5
MEAN_MOTION_DDOT = 0

CCSDS_OMM_VERS = 2.0
CREATION_DATE  = 
ORIGINATOR     = 

OBJECT_NAME    = SL-14 R/B
OBJECT_ID      = 1986-006B
CENTER_NAME    = EARTH
REF_FRAME      = TEME
TIME_SYSTEM    = UTC
MEAN_ELEMENT_THEORY = SGP/SGP4

EPOCH          = 2026-01-23T11:54:41.209920
MEAN_MOTION    = 14.86740697
ECCENTRICITY   = .00781128
INCLINATION    = 82.5287
RA_OF_ASC_NODE = 302.2673
ARG_OF_PERICENTER = 63.0251
MEAN_ANOMALY   = 297.8915

EPHEMERIS_TYPE = 0
CLASSIFICATION_TYPE = U
NORAD_CAT_ID   = 16496
ELEMENT_SET_NO = 999
REV_AT_EPOCH   = 14249
BSTAR          = .14880979E-3
MEAN_MOTION_DOT = .1427E-4
MEAN_MOTION_DDOT = 0

CCSDS_OMM_VERS = 2.0
CREATION_DATE  = 
ORIGINATOR     = 

OBJECT_NAME    = COSMOS 1743
OBJECT_ID      = 1986-034A
CENTER_NAME    = EARTH
REF_FRAME      = TEME
TIME_SYSTEM    = UTC
MEAN_ELEMENT_THEORY = SGP/SGP4

EPOCH          = 2026-01-23T17:09:24.416352
MEAN_MOTION    = 15.55144084
ECCENTRICITY   = .00054176
INCLINATION    = 82.5349
RA_OF_ASC_NODE = 120.9030
ARG_OF_PERICENTER = 99.6150
MEAN_ANOMALY   = 260.5716

EPHEMERIS_TYPE = 0
CLASSIFICATION_TYPE = U
NORAD_CAT_ID   = 16719
ELEMENT_SET_NO = 999
REV_AT_EPOCH   = 17325
BSTAR          = .68200699E-3
MEAN_MOTION_DOT = .46196E-3
MEAN_MOTION_DDOT = 0

